{
  "type": "FeatureCollection",
  "features": [
    {
      "type": "Feature",
      "properties": {
        "norad_id": 31724,
        "name": "FENGYUN 1C DEB",
        "group": "fengyun-1c-debris",
        "lat": -36.7599682920365,
        "lon": 177.01699453349192,
        "alt_km": 627.6841313863342,
        "timestamp": "2025-12-23T16:57:12.636599+00:00",
        "meta_object_name": "FENGYUN 1C DEB",
        "meta_object_id": "1999-025CDX",
        "meta_epoch": "2025-12-22T18:24:41.467968",
        "meta_mean_motion": 14.49282926,
        "meta_eccentricity": 0.01517753,
        "meta_inclination": 97.854,
        "meta_ra_of_asc_node": 2.0603,
        "meta_arg_of_pericenter": 211.0771,
        "meta_mean_anomaly": 148.1381,
        "meta_ephemeris_type": 0,
        "meta_classification_type": "U",
        "meta_norad_cat_id": 31724,
        "meta_element_set_no": 999,
        "meta_rev_at_epoch": 64637,
        "meta_bstar": 0.0022889291,
        "meta_mean_motion_dot": 0.0001008,
        "meta_mean_motion_ddot": 0,
        "tle_line1": "1 31724U 99025CDX 25356.76714662  .00010080  00000+0  22889-2 0  9991",
        "tle_line2": "2 31724  97.8540   2.0603 0151775 211.0771 148.1381 14.49282926646377"
      },
      "geometry": {
        "type": "Point",
        "coordinates": [
          177.01699453349192,
          -36.7599682920365
        ]
      }
    },
    {
      "type": "Feature",
      "properties": {
        "norad_id": 31725,
        "name": "FENGYUN 1C DEB",
        "group": "fengyun-1c-debris",
        "lat": 5.689898279975015,
        "lon": 33.599946001457766,
        "alt_km": 1714.6028107359962,
        "timestamp": "2025-12-23T16:57:12.636610+00:00",
        "meta_object_name": "FENGYUN 1C DEB",
        "meta_object_id": "1999-025CDY",
        "meta_epoch": "2025-12-17T21:05:21.230880",
        "meta_mean_motion": 12.79203585,
        "meta_eccentricity": 0.06944571,
        "meta_inclination": 99.1801,
        "meta_ra_of_asc_node": 207.8945,
        "meta_arg_of_pericenter": 323.3807,
        "meta_mean_anomaly": 32.1667,
        "meta_ephemeris_type": 0,
        "meta_classification_type": "U",
        "meta_norad_cat_id": 31725,
        "meta_element_set_no": 999,
        "meta_rev_at_epoch": 86547,
        "meta_bstar": 0.0022154725,
        "meta_mean_motion_dot": 1.348e-05,
        "meta_mean_motion_ddot": 0,
        "tle_line1": "1 31725U 99025CDY 25351.87871795  .00001348  00000+0  22155-2 0  9993",
        "tle_line2": "2 31725  99.1801 207.8945 0694457 323.3807  32.1667 12.79203585865471"
      },
      "geometry": {
        "type": "Point",
        "coordinates": [
          33.599946001457766,
          5.689898279975015
        ]
      }
    },
    {
      "type": "Feature",
      "properties": {
        "norad_id": 31727,
        "name": "FENGYUN 1C DEB",
        "group": "fengyun-1c-debris",
        "lat": 69.66340984955296,
        "lon": -45.00775588690292,
        "alt_km": 783.4352326058861,
        "timestamp": "2025-12-23T16:57:12.636620+00:00",
        "meta_object_name": "FENGYUN 1C DEB",
        "meta_object_id": "1999-025CEA",
        "meta_epoch": "2025-12-22T19:25:58.189728",
        "meta_mean_motion": 14.37119426,
        "meta_eccentricity": 0.00327118,
        "meta_inclination": 98.8662,
        "meta_ra_of_asc_node": 109.1617,
        "meta_arg_of_pericenter": 309.0011,
        "meta_mean_anomaly": 202.6819,
        "meta_ephemeris_type": 0,
        "meta_classification_type": "U",
        "meta_norad_cat_id": 31727,
        "meta_element_set_no": 999,
        "meta_rev_at_epoch": 71813,
        "meta_bstar": 0.0019103166,
        "meta_mean_motion_dot": 5.668e-05,
        "meta_mean_motion_ddot": 0,
        "tle_line1": "1 31727U 99025CEA 25356.80970127  .00005668  00000+0  19103-2 0  9990",
        "tle_line2": "2 31727  98.8662 109.1617 0032711 309.0011 202.6819 14.37119426718130"
      },
      "geometry": {
        "type": "Point",
        "coordinates": [
          -45.00775588690292,
          69.66340984955296
        ]
      }
    },
    {
      "type": "Feature",
      "properties": {
        "norad_id": 31731,
        "name": "FENGYUN 1C DEB",
        "group": "fengyun-1c-debris",
        "lat": 50.78012284602409,
        "lon": 35.26963811622903,
        "alt_km": 744.5118499638829,
        "timestamp": "2025-12-23T16:57:12.636631+00:00",
        "meta_object_name": "FENGYUN 1C DEB",
        "meta_object_id": "1999-025CEE",
        "meta_epoch": "2025-11-27T02:07:07.827456",
        "meta_mean_motion": 14.40063792,
        "meta_eccentricity": 0.00116613,
        "meta_inclination": 99.3084,
        "meta_ra_of_asc_node": 17.9462,
        "meta_arg_of_pericenter": 144.9647,
        "meta_mean_anomaly": 215.2308,
        "meta_ephemeris_type": 0,
        "meta_classification_type": "U",
        "meta_norad_cat_id": 31731,
        "meta_element_set_no": 999,
        "meta_rev_at_epoch": 95605,
        "meta_bstar": 0.0018623031,
        "meta_mean_motion_dot": 5.831e-05,
        "meta_mean_motion_ddot": 0,
        "tle_line1": "1 31731U 99025CEE 25331.08828504  .00005831  00000+0  18623-2 0  9997",
        "tle_line2": "2 31731  99.3084  17.9462 0011661 144.9647 215.2308 14.40063792956051"
      },
      "geometry": {
        "type": "Point",
        "coordinates": [
          35.26963811622903,
          50.78012284602409
        ]
      }
    },
    {
      "type": "Feature",
      "properties": {
        "norad_id": 31732,
        "name": "FENGYUN 1C DEB",
        "group": "fengyun-1c-debris",
        "lat": -50.71910556193178,
        "lon": 42.60608473484785,
        "alt_km": 860.8099287083778,
        "timestamp": "2025-12-23T16:57:12.636641+00:00",
        "meta_object_name": "FENGYUN 1C DEB",
        "meta_object_id": "1999-025CEF",
        "meta_epoch": "2025-12-20T21:11:00.979872",
        "meta_mean_motion": 14.12263162,
        "meta_eccentricity": 0.0039959,
        "meta_inclination": 98.572,
        "meta_ra_of_asc_node": 29.2791,
        "meta_arg_of_pericenter": 221.8195,
        "meta_mean_anomaly": 137.9923,
        "meta_ephemeris_type": 0,
        "meta_classification_type": "U",
        "meta_norad_cat_id": 31732,
        "meta_element_set_no": 999,
        "meta_rev_at_epoch": 64445,
        "meta_bstar": 0.00027164,
        "meta_mean_motion_dot": 4.62e-06,
        "meta_mean_motion_ddot": 0,
        "tle_line1": "1 31732U 99025CEF 25354.88265023  .00000462  00000+0  27164-3 0  9998",
        "tle_line2": "2 31732  98.5720  29.2791 0039959 221.8195 137.9923 14.12263162644457"
      },
      "geometry": {
        "type": "Point",
        "coordinates": [
          42.60608473484785,
          -50.71910556193178
        ]
      }
    },
    {
      "type": "Feature",
      "properties": {
        "norad_id": 31734,
        "name": "FENGYUN 1C DEB",
        "group": "fengyun-1c-debris",
        "lat": 26.63703037776666,
        "lon": 173.86397086322629,
        "alt_km": 868.075090016644,
        "timestamp": "2025-12-23T16:57:12.636651+00:00",
        "meta_object_name": "FENGYUN 1C DEB",
        "meta_object_id": "1999-025CEH",
        "meta_epoch": "2025-12-17T05:38:30.357312",
        "meta_mean_motion": 14.2902964,
        "meta_eccentricity": 0.01035042,
        "meta_inclination": 98.4953,
        "meta_ra_of_asc_node": 343.2584,
        "meta_arg_of_pericenter": 354.3593,
        "meta_mean_anomaly": 5.6416,
        "meta_ephemeris_type": 0,
        "meta_classification_type": "U",
        "meta_norad_cat_id": 31734,
        "meta_element_set_no": 999,
        "meta_rev_at_epoch": 96515,
        "meta_bstar": 0.00042036115,
        "meta_mean_motion_dot": 1.084e-05,
        "meta_mean_motion_ddot": 0,
        "tle_line1": "1 31734U 99025CEH 25351.23507358  .00001084  00000+0  42036-3 0  9992",
        "tle_line2": "2 31734  98.4953 343.2584 0103504 354.3593   5.6416 14.29029640965157"
      },
      "geometry": {
        "type": "Point",
        "coordinates": [
          173.86397086322629,
          26.63703037776666
        ]
      }
    },
    {
      "type": "Feature",
      "properties": {
        "norad_id": 31735,
        "name": "FENGYUN 1C DEB",
        "group": "fengyun-1c-debris",
        "lat": -52.0895742915625,
        "lon": -90.07301586810861,
        "alt_km": 717.0201094879494,
        "timestamp": "2025-12-23T16:57:12.636662+00:00",
        "meta_object_name": "FENGYUN 1C DEB",
        "meta_object_id": "1999-025CEJ",
        "meta_epoch": "2025-12-21T02:16:50.667168",
        "meta_mean_motion": 14.42563546,
        "meta_eccentricity": 0.00589369,
        "meta_inclination": 98.5802,
        "meta_ra_of_asc_node": 98.479,
        "meta_arg_of_pericenter": 258.8843,
        "meta_mean_anomaly": 100.5716,
        "meta_ephemeris_type": 0,
        "meta_classification_type": "U",
        "meta_norad_cat_id": 31735,
        "meta_element_set_no": 999,
        "meta_rev_at_epoch": 96785,
        "meta_bstar": 0.00028419624,
        "meta_mean_motion_dot": 9.16e-06,
        "meta_mean_motion_ddot": 0,
        "tle_line1": "1 31735U 99025CEJ 25355.09503087  .00000916  00000+0  28420-3 0  9990",
        "tle_line2": "2 31735  98.5802  98.4790 0058936 258.8843 100.5716 14.42563546967854"
      },
      "geometry": {
        "type": "Point",
        "coordinates": [
          -90.07301586810861,
          -52.0895742915625
        ]
      }
    }
  ]
}